<?xml version="1.0" encoding="UTF-8"?>
<gpx version="1.1" creator="DirtSync QA">
  <trk>
    <name>Rockhouse Trail #10 Ride</name>
    <trkseg>
      <trkpt lat="37.726264" lon="-81.882756"><ele>600</ele></trkpt>
      <trkpt lat="37.7257953" lon="-81.8830509"><ele>605</ele></trkpt>
      <trkpt lat="37.7254794" lon="-81.8832804"><ele>610</ele></trkpt>
      <trkpt lat="37.725283" lon="-81.883537"><ele>612</ele></trkpt>
      <trkpt lat="37.72499" lon="-81.88402"><ele>615</ele></trkpt>
      <trkpt lat="37.724409" lon="-81.884952"><ele>618</ele></trkpt>
      <trkpt lat="37.7238586" lon="-81.8858506"><ele>620</ele></trkpt>
      <trkpt lat="37.7236484" lon="-81.8862856"><ele>622</ele></trkpt>
      <trkpt lat="37.723516" lon="-81.886489"><ele>625</ele></trkpt>
      <trkpt lat="37.7235173" lon="-81.8871889"><ele>628</ele></trkpt>
      <trkpt lat="37.7231514" lon="-81.8879716"><ele>630</ele></trkpt>
      <trkpt lat="37.722612" lon="-81.888668"><ele>633</ele></trkpt>
      <trkpt lat="37.7222163" lon="-81.8890569"><ele>635</ele></trkpt>
      <trkpt lat="37.7219315" lon="-81.8897608"><ele>638</ele></trkpt>
      <trkpt lat="37.721538" lon="-81.890376"><ele>640</ele></trkpt>
      <trkpt lat="37.721487" lon="-81.891313"><ele>642</ele></trkpt>
      <trkpt lat="37.721092" lon="-81.892175"><ele>645</ele></trkpt>
      <trkpt lat="37.720545" lon="-81.892685"><ele>648</ele></trkpt>
      <trkpt lat="37.720102" lon="-81.892793"><ele>650</ele></trkpt>
      <trkpt lat="37.71965" lon="-81.892913"><ele>652</ele></trkpt>
      <trkpt lat="37.71924" lon="-81.893015"><ele>655</ele></trkpt>
      <trkpt lat="37.718754" lon="-81.893057"><ele>658</ele></trkpt>
      <trkpt lat="37.718116" lon="-81.893198"><ele>660</ele></trkpt>
      <trkpt lat="37.71796" lon="-81.89341"><ele>662</ele></trkpt>
      <trkpt lat="37.7175941" lon="-81.8937123"><ele>665</ele></trkpt>
      <trkpt lat="37.7172696" lon="-81.8940633"><ele>668</ele></trkpt>
      <trkpt lat="37.7170549" lon="-81.8942575"><ele>670</ele></trkpt>
      <trkpt lat="37.7168221" lon="-81.8939883"><ele>672</ele></trkpt>
      <trkpt lat="37.7165903" lon="-81.8934369"><ele>675</ele></trkpt>
      <trkpt lat="37.7163655" lon="-81.8929736"><ele>678</ele></trkpt>
      <trkpt lat="37.7162166" lon="-81.892374"><ele>680</ele></trkpt>
      <trkpt lat="37.7161046" lon="-81.8919322"><ele>682</ele></trkpt>
      <trkpt lat="37.7160514" lon="-81.8930415"><ele>685</ele></trkpt>
      <trkpt lat="37.7159512" lon="-81.8932519"><ele>688</ele></trkpt>
      <trkpt lat="37.7158967" lon="-81.8919805"><ele>690</ele></trkpt>
      <trkpt lat="37.7158535" lon="-81.8908932"><ele>692</ele></trkpt>
      <trkpt lat="37.7158707" lon="-81.8906164"><ele>695</ele></trkpt>
      <trkpt lat="37.7160406" lon="-81.8904495"><ele>698</ele></trkpt>
      <trkpt lat="37.7161609" lon="-81.8907536"><ele>700</ele></trkpt>
      <trkpt lat="37.7164253" lon="-81.891334"><ele>702</ele></trkpt>
      <trkpt lat="37.7166043" lon="-81.8917628"><ele>705</ele></trkpt>
      <trkpt lat="37.7168487" lon="-81.892314"><ele>708</ele></trkpt>
      <trkpt lat="37.7168469" lon="-81.8920628"><ele>710</ele></trkpt>
      <trkpt lat="37.7167762" lon="-81.8915734"><ele>712</ele></trkpt>
      <trkpt lat="37.7166327" lon="-81.8908547"><ele>715</ele></trkpt>
      <trkpt lat="37.7165626" lon="-81.8903704"><ele>718</ele></trkpt>
      <trkpt lat="37.7165757" lon="-81.8899425"><ele>720</ele></trkpt>
      <trkpt lat="37.7166555" lon="-81.8896442"><ele>722</ele></trkpt>
      <trkpt lat="37.7167047" lon="-81.8893613"><ele>725</ele></trkpt>
      <trkpt lat="37.7167027" lon="-81.888716"><ele>728</ele></trkpt>
      <trkpt lat="37.716637" lon="-81.8885527"><ele>730</ele></trkpt>
      <trkpt lat="37.7163899" lon="-81.8886766"><ele>732</ele></trkpt>
      <trkpt lat="37.7161598" lon="-81.8889187"><ele>735</ele></trkpt>
      <trkpt lat="37.7158192" lon="-81.8891974"><ele>738</ele></trkpt>
      <trkpt lat="37.7154206" lon="-81.8891927"><ele>740</ele></trkpt>
      <trkpt lat="37.7153382" lon="-81.8893604"><ele>742</ele></trkpt>
      <trkpt lat="37.7151367" lon="-81.889463"><ele>745</ele></trkpt>
      <trkpt lat="37.715098" lon="-81.8897054"><ele>748</ele></trkpt>
      <trkpt lat="37.715182" lon="-81.8900518"><ele>750</ele></trkpt>
      <trkpt lat="37.7150864" lon="-81.8909299"><ele>752</ele></trkpt>
      <trkpt lat="37.7149002" lon="-81.8916257"><ele>755</ele></trkpt>
      <trkpt lat="37.7147556" lon="-81.8922986"><ele>758</ele></trkpt>
      <trkpt lat="37.7146887" lon="-81.8926174"><ele>760</ele></trkpt>
      <trkpt lat="37.7144131" lon="-81.8925045"><ele>762</ele></trkpt>
      <trkpt lat="37.7141513" lon="-81.8920427"><ele>765</ele></trkpt>
      <trkpt lat="37.7138999" lon="-81.8916883"><ele>768</ele></trkpt>
      <trkpt lat="37.7136407" lon="-81.8915502"><ele>770</ele></trkpt>
      <trkpt lat="37.7133815" lon="-81.8916124"><ele>772</ele></trkpt>
      <trkpt lat="37.713059" lon="-81.8917536"><ele>775</ele></trkpt>
      <trkpt lat="37.712918" lon="-81.8917396"><ele>778</ele></trkpt>
    </trkseg>
  </trk>
</gpx>
